[{"CCSDS_OMM_VERS":"2.0","COMMENT":"GENERATED VIA SPACE-TRACK.ORG API","CREATION_DATE":"2024-02-17T03:47:55","ORIGINATOR":"18 SPCS","OBJECT_NAME":"NAVSTAR 73 (USA 260)","OBJECT_ID":"2015-013A","CENTER_NAME":"EARTH","REF_FRAME":"TEME","TIME_SYSTEM":"UTC","MEAN_ELEMENT_THEORY":"SGP4","EPOCH":"2024-02-16T11:44:26.314944","MEAN_MOTION":"2.00572879","ECCENTRICITY":"0.00870950","INCLINATION":"53.3919","RA_OF_ASC_NODE":"239.4407","ARG_OF_PERICENTER":"29.1378","MEAN_ANOMALY":"331.3569","EPHEMERIS_TYPE":"0","CLASSIFICATION_TYPE":"U","NORAD_CAT_ID":"40534","ELEMENT_SET_NO":"999","REV_AT_EPOCH":"6474","BSTAR":"0.00000000000000","MEAN_MOTION_DOT":"0.00000068","MEAN_MOTION_DDOT":"0.0000000000000","SEMIMAJOR_AXIS":"26559.529","PERIOD":"717.944","APOAPSIS":"20412.714","PERIAPSIS":"19950.074","OBJECT_TYPE":"PAYLOAD","RCS_SIZE":"LARGE","COUNTRY_CODE":"US","LAUNCH_DATE":"2015-03-25","SITE":"AFETR","DECAY_DATE":null,"FILE":"4190592","GP_ID":"249437865","TLE_LINE0":"0 NAVSTAR 73 (USA 260)","TLE_LINE1":"1 40534U 15013A   24047.48919346  .00000068  00000-0  00000-0 0  9991","TLE_LINE2":"2 40534  53.3919 239.4407 0087095  29.1378 331.3569  2.00572879 64747"},{"CCSDS_OMM_VERS":"2.0","COMMENT":"GENERATED VIA SPACE-TRACK.ORG API","CREATION_DATE":"2024-02-16T17:39:09","ORIGINATOR":"18 SPCS","OBJECT_NAME":"NAVSTAR 57 (USA 183)","OBJECT_ID":"2005-038A","CENTER_NAME":"EARTH","REF_FRAME":"TEME","TIME_SYSTEM":"UTC","MEAN_ELEMENT_THEORY":"SGP4","EPOCH":"2024-02-16T12:29:43.691712","MEAN_MOTION":"2.00563939","ECCENTRICITY":"0.01380620","INCLINATION":"55.6034","RA_OF_ASC_NODE":"307.3508","ARG_OF_PERICENTER":"283.2008","MEAN_ANOMALY":"251.0875","EPHEMERIS_TYPE":"0","CLASSIFICATION_TYPE":"U","NORAD_CAT_ID":"28874","ELEMENT_SET_NO":"999","REV_AT_EPOCH":"13475","BSTAR":"0.00000000000000","MEAN_MOTION_DOT":"-0.00000066","MEAN_MOTION_DDOT":"0.0000000000000","SEMIMAJOR_AXIS":"26560.318","PERIOD":"717.976","APOAPSIS":"20548.880","PERIAPSIS":"19815.486","OBJECT_TYPE":"PAYLOAD","RCS_SIZE":"LARGE","COUNTRY_CODE":"US","LAUNCH_DATE":"2005-09-26","SITE":"AFETR","DECAY_DATE":null,"FILE":"4190317","GP_ID":"249396301","TLE_LINE0":"0 NAVSTAR 57 (USA 183)","TLE_LINE1":"1 28874U 05038A   24047.52064458 -.00000066  00000-0  00000-0 0  9999","TLE_LINE2":"2 28874  55.6034 307.3508 0138062 283.2008 251.0875  2.00563939134758"},{"CCSDS_OMM_VERS":"2.0","COMMENT":"GENERATED VIA SPACE-TRACK.ORG API","CREATION_DATE":"2024-02-16T17:39:09","ORIGINATOR":"18 SPCS","OBJECT_NAME":"NAVSTAR 54 (USA 177)","OBJECT_ID":"2004-009A","CENTER_NAME":"EARTH","REF_FRAME":"TEME","TIME_SYSTEM":"UTC","MEAN_ELEMENT_THEORY":"SGP4","EPOCH":"2024-02-16T13:26:01.265568","MEAN_MOTION":"2.00562249","ECCENTRICITY":"0.00934580","INCLINATION":"55.5553","RA_OF_ASC_NODE":"309.8924","ARG_OF_PERICENTER":"143.2378","MEAN_ANOMALY":"34.7407","EPHEMERIS_TYPE":"0","CLASSIFICATION_TYPE":"U","NORAD_CAT_ID":"28190","ELEMENT_SET_NO":"999","REV_AT_EPOCH":"14586","BSTAR":"0.00000000000000","MEAN_MOTION_DOT":"-0.00000071","MEAN_MOTION_DDOT":"0.0000000000000","SEMIMAJOR_AXIS":"26560.467","PERIOD":"717.982","APOAPSIS":"20430.561","PERIAPSIS":"19934.104","OBJECT_TYPE":"PAYLOAD","RCS_SIZE":"LARGE","COUNTRY_CODE":"US","LAUNCH_DATE":"2004-03-20","SITE":"AFETR","DECAY_DATE":null,"FILE":"4190317","GP_ID":"249395639","TLE_LINE0":"0 NAVSTAR 54 (USA 177)","TLE_LINE1":"1 28190U 04009A   24047.55973687 -.00000071  00000-0  00000-0 0  9999","TLE_LINE2":"2 28190  55.5553 309.8924 0093458 143.2378  34.7407  2.00562249145861"},{"CCSDS_OMM_VERS":"2.0","COMMENT":"GENERATED VIA SPACE-TRACK.ORG API","CREATION_DATE":"2024-02-17T03:47:55","ORIGINATOR":"18 SPCS","OBJECT_NAME":"NAVSTAR 62 (USA 201)","OBJECT_ID":"2008-012A","CENTER_NAME":"EARTH","REF_FRAME":"TEME","TIME_SYSTEM":"UTC","MEAN_ELEMENT_THEORY":"SGP4","EPOCH":"2024-02-16T13:41:06.464544","MEAN_MOTION":"2.00563743","ECCENTRICITY":"0.01817400","INCLINATION":"54.4510","RA_OF_ASC_NODE":"183.8974","ARG_OF_PERICENTER":"237.1961","MEAN_ANOMALY":"121.0105","EPHEMERIS_TYPE":"0","CLASSIFICATION_TYPE":"U","NORAD_CAT_ID":"32711","ELEMENT_SET_NO":"999","REV_AT_EPOCH":"11667","BSTAR":"0.00000000000000","MEAN_MOTION_DOT":"0.00000034","MEAN_MOTION_DDOT":"0.0000000000000","SEMIMAJOR_AXIS":"26560.336","PERIOD":"717.976","APOAPSIS":"20664.908","PERIAPSIS":"19699.493","OBJECT_TYPE":"PAYLOAD","RCS_SIZE":"LARGE","COUNTRY_CODE":"US","LAUNCH_DATE":"2008-03-15","SITE":"AFETR","DECAY_DATE":null,"FILE":"4190592","GP_ID":"249433710","TLE_LINE0":"0 NAVSTAR 62 (USA 201)","TLE_LINE1":"1 32711U 08012A   24047.57021371  .00000034  00000-0  00000-0 0  9995","TLE_LINE2":"2 32711  54.4510 183.8974 0181740 237.1961 121.0105  2.00563743116676"},{"CCSDS_OMM_VERS":"2.0","COMMENT":"GENERATED VIA SPACE-TRACK.ORG API","CREATION_DATE":"2024-02-16T17:39:09","ORIGINATOR":"18 SPCS","OBJECT_NAME":"NAVSTAR 69 (USA 248)","OBJECT_ID":"2014-008A","CENTER_NAME":"EARTH","REF_FRAME":"TEME","TIME_SYSTEM":"UTC","MEAN_ELEMENT_THEORY":"SGP4","EPOCH":"2024-02-16T14:39:54.118656","MEAN_MOTION":"2.00561027","ECCENTRICITY":"0.00694600","INCLINATION":"53.5993","RA_OF_ASC_NODE":"184.0171","ARG_OF_PERICENTER":"216.5687","MEAN_ANOMALY":"142.9237","EPHEMERIS_TYPE":"0","CLASSIFICATION_TYPE":"U","NORAD_CAT_ID":"39533","ELEMENT_SET_NO":"999","REV_AT_EPOCH":"7260","BSTAR":"0.00000000000000","MEAN_MOTION_DOT":"0.00000033","MEAN_MOTION_DDOT":"0.0000000000000","SEMIMAJOR_AXIS":"26560.575","PERIOD":"717.986","APOAPSIS":"20366.930","PERIAPSIS":"19997.951","OBJECT_TYPE":"PAYLOAD","RCS_SIZE":"LARGE","COUNTRY_CODE":"US","LAUNCH_DATE":"2014-02-21","SITE":"AFETR","DECAY_DATE":null,"FILE":"4190317","GP_ID":"249402658","TLE_LINE0":"0 NAVSTAR 69 (USA 248)","TLE_LINE1":"1 39533U 14008A   24047.61104304  .00000033  00000-0  00000-0 0  9998","TLE_LINE2":"2 39533  53.5993 184.0171 0069460 216.5687 142.9237  2.00561027 72607"},{"CCSDS_OMM_VERS":"2.0","COMMENT":"GENERATED VIA SPACE-TRACK.ORG API","CREATION_DATE":"2024-02-17T03:47:55","ORIGINATOR":"18 SPCS","OBJECT_NAME":"NAVSTAR 61 (USA 199)","OBJECT_ID":"2007-062A","CENTER_NAME":"EARTH","REF_FRAME":"TEME","TIME_SYSTEM":"UTC","MEAN_ELEMENT_THEORY":"SGP4","EPOCH":"2024-02-16T15:27:01.595808","MEAN_MOTION":"2.00567402","ECCENTRICITY":"0.00247890","INCLINATION":"55.7396","RA_OF_ASC_NODE":"308.1915","ARG_OF_PERICENTER":"147.5759","MEAN_ANOMALY":"334.1703","EPHEMERIS_TYPE":"0","CLASSIFICATION_TYPE":"U","NORAD_CAT_ID":"32384","ELEMENT_SET_NO":"999","REV_AT_EPOCH":"11843","BSTAR":"0.00000000000000","MEAN_MOTION_DOT":"-0.00000067","MEAN_MOTION_DDOT":"0.0000000000000","SEMIMAJOR_AXIS":"26560.013","PERIOD":"717.963","APOAPSIS":"20247.717","PERIAPSIS":"20116.038","OBJECT_TYPE":"PAYLOAD","RCS_SIZE":"LARGE","COUNTRY_CODE":"US","LAUNCH_DATE":"2007-12-20","SITE":"AFETR","DECAY_DATE":null,"FILE":"4190592","GP_ID":"249433671","TLE_LINE0":"0 NAVSTAR 61 (USA 199)","TLE_LINE1":"1 32384U 07062A   24047.64376847 -.00000067  00000-0  00000-0 0  9991","TLE_LINE2":"2 32384  55.7396 308.1915 0024789 147.5759 334.1703  2.00567402118436"},{"CCSDS_OMM_VERS":"2.0","COMMENT":"GENERATED VIA SPACE-TRACK.ORG API","CREATION_DATE":"2024-02-17T03:47:55","ORIGINATOR":"18 SPCS","OBJECT_NAME":"NAVSTAR 74 (USA 262)","OBJECT_ID":"2015-033A","CENTER_NAME":"EARTH","REF_FRAME":"TEME","TIME_SYSTEM":"UTC","MEAN_ELEMENT_THEORY":"SGP4","EPOCH":"2024-02-16T15:37:05.845440","MEAN_MOTION":"2.00573305","ECCENTRICITY":"0.00926700","INCLINATION":"54.7017","RA_OF_ASC_NODE":"302.0089","ARG_OF_PERICENTER":"17.0540","MEAN_ANOMALY":"343.3038","EPHEMERIS_TYPE":"0","CLASSIFICATION_TYPE":"U","NORAD_CAT_ID":"40730","ELEMENT_SET_NO":"999","REV_AT_EPOCH":"6291","BSTAR":"0.00000000000000","MEAN_MOTION_DOT":"-0.00000055","MEAN_MOTION_DDOT":"0.0000000000000","SEMIMAJOR_AXIS":"26559.491","PERIOD":"717.942","APOAPSIS":"20427.483","PERIAPSIS":"19935.230","OBJECT_TYPE":"PAYLOAD","RCS_SIZE":"LARGE","COUNTRY_CODE":"US","LAUNCH_DATE":"2015-07-15","SITE":"AFETR","DECAY_DATE":null,"FILE":"4190592","GP_ID":"249437422","TLE_LINE0":"0 NAVSTAR 74 (USA 262)","TLE_LINE1":"1 40730U 15033A   24047.65076210 -.00000055  00000-0  00000-0 0  9991","TLE_LINE2":"2 40730  54.7017 302.0089 0092670  17.0540 343.3038  2.00573305 62910"},{"CCSDS_OMM_VERS":"2.0","COMMENT":"GENERATED VIA SPACE-TRACK.ORG API","CREATION_DATE":"2024-02-17T06:36:16","ORIGINATOR":"18 SPCS","OBJECT_NAME":"NAVSTAR 74 (USA 262)","OBJECT_ID":"2015-033A","CENTER_NAME":"EARTH","REF_FRAME":"TEME","TIME_SYSTEM":"UTC","MEAN_ELEMENT_THEORY":"SGP4","EPOCH":"2024-02-16T15:37:05.845440","MEAN_MOTION":"2.00573305","ECCENTRICITY":"0.00926700","INCLINATION":"54.7017","RA_OF_ASC_NODE":"302.0089","ARG_OF_PERICENTER":"17.0540","MEAN_ANOMALY":"343.3038","EPHEMERIS_TYPE":"0","CLASSIFICATION_TYPE":"U","NORAD_CAT_ID":"40730","ELEMENT_SET_NO":"999","REV_AT_EPOCH":"6293","BSTAR":"0.00000000000000","MEAN_MOTION_DOT":"-0.00000055","MEAN_MOTION_DDOT":"0.0000000000000","SEMIMAJOR_AXIS":"26559.491","PERIOD":"717.942","APOAPSIS":"20427.483","PERIAPSIS":"19935.230","OBJECT_TYPE":"PAYLOAD","RCS_SIZE":"LARGE","COUNTRY_CODE":"US","LAUNCH_DATE":"2015-07-15","SITE":"AFETR","DECAY_DATE":null,"FILE":"4190675","GP_ID":"249452471","TLE_LINE0":"0 NAVSTAR 74 (USA 262)","TLE_LINE1":"1 40730U 15033A   24047.65076210 -.00000055  00000-0  00000+0 0  9990","TLE_LINE2":"2 40730  54.7017 302.0089 0092670  17.0540 343.3038  2.00573305 62932"}]